[{"OBJECT_NAME":"OBJECT G","OBJECT_ID":"2026-027G","EPOCH":"2026-03-09T21:53:37.288032","MEAN_MOTION":15.12145257,"ECCENTRICITY":0.00120269,"INCLINATION":97.4906,"RA_OF_ASC_NODE":197.8999,"ARG_OF_PERICENTER":227.3105,"MEAN_ANOMALY":132.7114,"EPHEMERIS_TYPE":0,"CLASSIFICATION_TYPE":"U","NORAD_CAT_ID":67752,"ELEMENT_SET_NO":999,"REV_AT_EPOCH":389,"BSTAR":0.00053594907,"MEAN_MOTION_DOT":9.195e-5,"MEAN_MOTION_DDOT":0},{"OBJECT_NAME":"AUREOLE 3","OBJECT_ID":"1981-094A","EPOCH":"2026-03-09T22:56:08.699136","MEAN_MOTION":14.57338362,"ECCENTRICITY":0.04661674,"INCLINATION":82.4728,"RA_OF_ASC_NODE":18.4217,"ARG_OF_PERICENTER":152.6496,"MEAN_ANOMALY":210.011,"EPHEMERIS_TYPE":0,"CLASSIFICATION_TYPE":"U","NORAD_CAT_ID":12848,"ELEMENT_SET_NO":999,"REV_AT_EPOCH":24579,"BSTAR":0.00036802008,"MEAN_MOTION_DOT":8.02e-5,"MEAN_MOTION_DDOT":0}]
